{
  "type": "FeatureCollection",
  "features": [
    {
      "type": "Feature",
      "properties": {
        "osm_id": "239789845",
        "address": null,
        "building": "yes",
        "building:levels": "1",
        "footprint": {
          "type": "Polygon",
          "coordinates": [
            [
              [
                266853.6305950327,
                6242298.815003039
              ],
              [
                266847.47375562484,
                6242298.641395537
              ],
              [
                266847.97197138495,
                6242280.2634815965
              ],
              [
                266854.1287988315,
                6242280.4370894255
              ],
              [
                266853.6305950327,
                6242298.815003039
              ]
            ]
          ]
        },
        "plus_code": "4FRW3F8H+92G",
        "ground_height": 8.48,
        "building_height": 4.1,
        "roof_height": 12.58
      },
      "geometry": {
        "type": "Polygon",
        "coordinates": [
          [
            [
              266853.6305950327,
              6242298.815003039
            ],
            [
              266847.47375562484,
              6242298.641395537
            ],
            [
              266847.97197138495,
              6242280.2634815965
            ],
            [
              266854.1287988315,
              6242280.4370894255
            ],
            [
              266853.6305950327,
              6242298.815003039
            ]
          ]
        ]
      }
    },
    {
      "type": "Feature",
      "properties": {
        "osm_id": "239789847",
        "address": "Main Building",
        "building": "office",
        "building:levels": "1",
        "footprint": {
          "type": "Polygon",
          "coordinates": [
            [
              [
                266810.52770708024,
                6242265.458360909
              ],
              [
                266811.22446440975,
                6242237.507341791
              ],
              [
                266821.6993496058,
                6242237.764985802
              ],
              [
                266821.4630956714,
                6242247.370453639
              ],
              [
                266828.73912637425,
                6242247.549410264
              ],
              [
                266828.80050677736,
                6242245.053763377
              ],
              [
                266837.58351461694,
                6242245.269777332
              ],
              [
                266837.5213181557,
                6242247.798699441
              ],
              [
                266844.43678284757,
                6242247.968776218
              ],
              [
                266844.681196979,
                6242238.03055617
              ],
              [
                266854.647591244,
                6242238.275658241
              ],
              [
                266853.9574796866,
                6242266.337818574
              ],
              [
                266844.35162222676,
                6242266.101584867
              ],
              [
                266844.47928415216,
                6242260.910639706
              ],
              [
                266828.1246452875,
                6242260.497314049
              ],
              [
                266828.2201257609,
                6242256.61519672
              ],
              [
                266821.03654090606,
                6242256.43851402
              ],
              [
                266820.8084720811,
                6242265.711228733
              ],
              [
                266810.52770708024,
                6242265.458360909
              ]
            ]
          ]
        },
        "plus_code": "4FRW3F8G+6WX",
        "ground_height": 9.89,
        "building_height": 4.1,
        "roof_height": 13.99
      },
      "geometry": {
        "type": "Polygon",
        "coordinates": [
          [
            [
              266810.52770708024,
              6242265.458360909
            ],
            [
              266811.22446440975,
              6242237.507341791
            ],
            [
              266821.6993496058,
              6242237.764985802
            ],
            [
              266821.4630956714,
              6242247.370453639
            ],
            [
              266828.73912637425,
              6242247.549410264
            ],
            [
              266828.80050677736,
              6242245.053763377
            ],
            [
              266837.58351461694,
              6242245.269777332
            ],
            [
              266837.5213181557,
              6242247.798699441
            ],
            [
              266844.43678284757,
              6242247.968776218
            ],
            [
              266844.681196979,
              6242238.03055617
            ],
            [
              266854.647591244,
              6242238.275658241
            ],
            [
              266853.9574796866,
              6242266.337818574
            ],
            [
              266844.35162222676,
              6242266.101584867
            ],
            [
              266844.47928415216,
              6242260.910639706
            ],
            [
              266828.1246452875,
              6242260.497314049
            ],
            [
              266828.2201257609,
              6242256.61519672
            ],
            [
              266821.03654090606,
              6242256.43851402
            ],
            [
              266820.8084720811,
              6242265.711228733
            ],
            [
              266810.52770708024,
              6242265.458360909
            ]
          ]
        ]
      }
    },
    {
      "type": "Feature",
      "properties": {
        "osm_id": "239789852",
        "address": null,
        "building": "industrial",
        "building:levels": "1",
        "footprint": {
          "type": "Polygon",
          "coordinates": [
            [
              [
                266866.86080778675,
                6242362.712377388
              ],
              [
                266842.57375679637,
                6242361.715582698
              ],
              [
                266844.0449182807,
                6242325.592946017
              ],
              [
                266868.3321491397,
                6242326.578650234
              ],
              [
                266866.86080778675,
                6242362.712377388
              ]
            ]
          ]
        },
        "plus_code": "4FRW3F8H+H3C",
        "ground_height": 6.24,
        "building_height": 4.1,
        "roof_height": 10.34
      },
      "geometry": {
        "type": "Polygon",
        "coordinates": [
          [
            [
              266866.86080778675,
              6242362.712377388
            ],
            [
              266842.57375679637,
              6242361.715582698
            ],
            [
              266844.0449182807,
              6242325.592946017
            ],
            [
              266868.3321491397,
              6242326.578650234
            ],
            [
              266866.86080778675,
              6242362.712377388
            ]
          ]
        ]
      }
    },
    {
      "type": "Feature",
      "properties": {
        "osm_id": "239789854",
        "address": null,
        "building": "yes",
        "building:levels": "1",
        "footprint": {
          "type": "Polygon",
          "coordinates": [
            [
              [
                266820.0347549692,
                6242386.687749377
              ],
              [
                266820.1828503548,
                6242377.657235717
              ],
              [
                266818.5091599012,
                6242377.627169965
              ],
              [
                266818.6630461158,
                6242367.609034492
              ],
              [
                266834.8645180475,
                6242367.863216367
              ],
              [
                266834.79975148,
                6242372.001353095
              ],
              [
                266837.8050504232,
                6242372.053065905
              ],
              [
                266837.62718030316,
                6242383.047275569
              ],
              [
                266834.7882951771,
                6242382.999655629
              ],
              [
                266834.7289847947,
                6242386.915957042
              ],
              [
                266820.0347549692,
                6242386.687749377
              ]
            ]
          ]
        },
        "plus_code": "4FRW3F8G+MWQ",
        "ground_height": 5.08,
        "building_height": 4.1,
        "roof_height": 9.18
      },
      "geometry": {
        "type": "Polygon",
        "coordinates": [
          [
            [
              266820.0347549692,
              6242386.687749377
            ],
            [
              266820.1828503548,
              6242377.657235717
            ],
            [
              266818.5091599012,
              6242377.627169965
            ],
            [
              266818.6630461158,
              6242367.609034492
            ],
            [
              266834.8645180475,
              6242367.863216367
            ],
            [
              266834.79975148,
              6242372.001353095
            ],
            [
              266837.8050504232,
              6242372.053065905
            ],
            [
              266837.62718030316,
              6242383.047275569
            ],
            [
              266834.7882951771,
              6242382.999655629
            ],
            [
              266834.7289847947,
              6242386.915957042
            ],
            [
              266820.0347549692,
              6242386.687749377
            ]
          ]
        ]
      }
    },
    {
      "type": "Feature",
      "properties": {
        "osm_id": "358522011",
        "address": null,
        "building": "yes",
        "building:levels": "1",
        "footprint": {
          "type": "Polygon",
          "coordinates": [
            [
              [
                266810.77845209284,
                6242325.596061895
              ],
              [
                266839.9037616753,
                6242326.212503439
              ],
              [
                266839.6878751145,
                6242336.495476649
              ],
              [
                266821.9074101954,
                6242336.124774326
              ],
              [
                266821.6803201853,
                6242346.862510329
              ],
              [
                266839.8491108358,
                6242347.24276158
              ],
              [
                266839.6498656141,
                6242356.849137034
              ],
              [
                266810.13615585846,
                6242356.223149054
              ],
              [
                266810.77845209284,
                6242325.596061895
              ]
            ]
          ]
        },
        "plus_code": "4FRW3F8G+HV8",
        "ground_height": 7.33,
        "building_height": 4.1,
        "roof_height": 11.43
      },
      "geometry": {
        "type": "Polygon",
        "coordinates": [
          [
            [
              266810.77845209284,
              6242325.596061895
            ],
            [
              266839.9037616753,
              6242326.212503439
            ],
            [
              266839.6878751145,
              6242336.495476649
            ],
            [
              266821.9074101954,
              6242336.124774326
            ],
            [
              266821.6803201853,
              6242346.862510329
            ],
            [
              266839.8491108358,
              6242347.24276158
            ],
            [
              266839.6498656141,
              6242356.849137034
            ],
            [
              266810.13615585846,
              6242356.223149054
            ],
            [
              266810.77845209284,
              6242325.596061895
            ]
          ]
        ]
      }
    },
    {
      "type": "Feature",
      "properties": {
        "osm_id": "815769470",
        "address": null,
        "building": "yes",
        "building:levels": "1",
        "footprint": {
          "type": "Polygon",
          "coordinates": [
            [
              [
                266908.0042651962,
                6242207.890452037
              ],
              [
                266906.8455782828,
                6242197.074253338
              ],
              [
                266910.4259599739,
                6242196.685050036
              ],
              [
                266909.9501413881,
                6242192.333850578
              ],
              [
                266917.3890749484,
                6242191.528984334
              ],
              [
                266919.1651943568,
                6242207.709821646
              ],
              [
                266913.87795987015,
                6242208.290131221
              ],
              [
                266913.7643703512,
                6242207.266279561
              ],
              [
                266908.0042651962,
                6242207.890452037
              ]
            ]
          ]
        },
        "plus_code": "4FRW3F8H+375",
        "ground_height": 8.47,
        "building_height": 4.1,
        "roof_height": 12.57
      },
      "geometry": {
        "type": "Polygon",
        "coordinates": [
          [
            [
              266908.0042651962,
              6242207.890452037
            ],
            [
              266906.8455782828,
              6242197.074253338
            ],
            [
              266910.4259599739,
              6242196.685050036
            ],
            [
              266909.9501413881,
              6242192.333850578
            ],
            [
              266917.3890749484,
              6242191.528984334
            ],
            [
              266919.1651943568,
              6242207.709821646
            ],
            [
              266913.87795987015,
              6242208.290131221
            ],
            [
              266913.7643703512,
              6242207.266279561
            ],
            [
              266908.0042651962,
              6242207.890452037
            ]
          ]
        ]
      }
    },
    {
      "type": "Feature",
      "properties": {
        "osm_id": "815769471",
        "address": null,
        "building": "yes",
        "building:levels": "1",
        "footprint": {
          "type": "Polygon",
          "coordinates": [
            [
              [
                266906.8455782828,
                6242197.074253338
              ],
              [
                266908.0042651962,
                6242207.890452037
              ],
              [
                266898.7012987111,
                6242208.882547281
              ],
              [
                266898.1724948118,
                6242204.052810028
              ],
              [
                266896.52138972096,
                6242204.234181831
              ],
              [
                266895.90264477464,
                6242198.547650762
              ],
              [
                266897.40527989937,
                6242198.384825478
              ],
              [
                266897.0427817466,
                6242195.068568809
              ],
              [
                266900.9105833261,
                6242194.653140854
              ],
              [
                266900.8353126479,
                6242193.952086638
              ],
              [
                266903.5713789164,
                6242193.664209209
              ],
              [
                266903.8056186519,
                6242195.800874354
              ],
              [
                266906.67166378663,
                6242195.493994921
              ],
              [
                266906.8455782828,
                6242197.074253338
              ]
            ]
          ]
        },
        "plus_code": "4FRW3F8H+365",
        "ground_height": 8.47,
        "building_height": 4.1,
        "roof_height": 12.57
      },
      "geometry": {
        "type": "Polygon",
        "coordinates": [
          [
            [
              266906.8455782828,
              6242197.074253338
            ],
            [
              266908.0042651962,
              6242207.890452037
            ],
            [
              266898.7012987111,
              6242208.882547281
            ],
            [
              266898.1724948118,
              6242204.052810028
            ],
            [
              266896.52138972096,
              6242204.234181831
            ],
            [
              266895.90264477464,
              6242198.547650762
            ],
            [
              266897.40527989937,
              6242198.384825478
            ],
            [
              266897.0427817466,
              6242195.068568809
            ],
            [
              266900.9105833261,
              6242194.653140854
            ],
            [
              266900.8353126479,
              6242193.952086638
            ],
            [
              266903.5713789164,
              6242193.664209209
            ],
            [
              266903.8056186519,
              6242195.800874354
            ],
            [
              266906.67166378663,
              6242195.493994921
            ],
            [
              266906.8455782828,
              6242197.074253338
            ]
          ]
        ]
      }
    },
    {
      "type": "Feature",
      "properties": {
        "osm_id": "815769472",
        "address": null,
        "building": "yes",
        "building:levels": "1",
        "footprint": {
          "type": "Polygon",
          "coordinates": [
            [
              [
                266732.74212992185,
                6242146.067325235
              ],
              [
                266733.16778536025,
                6242138.919276547
              ],
              [
                266739.3568658469,
                6242139.282433974
              ],
              [
                266738.9312150994,
                6242146.430482686
              ],
              [
                266732.74212992185,
                6242146.067325235
              ]
            ]
          ]
        },
        "plus_code": "4FRW3F7G+VG3",
        "ground_height": 2.07,
        "building_height": 4.1,
        "roof_height": 6.17
      },
      "geometry": {
        "type": "Polygon",
        "coordinates": [
          [
            [
              266732.74212992185,
              6242146.067325235
            ],
            [
              266733.16778536025,
              6242138.919276547
            ],
            [
              266739.3568658469,
              6242139.282433974
            ],
            [
              266738.9312150994,
              6242146.430482686
            ],
            [
              266732.74212992185,
              6242146.067325235
            ]
          ]
        ]
      }
    },
    {
      "type": "Feature",
      "properties": {
        "osm_id": "815769473",
        "address": null,
        "building": "yes",
        "building:levels": "1",
        "footprint": {
          "type": "Polygon",
          "coordinates": [
            [
              [
                266736.6498040086,
                6242137.639840784
              ],
              [
                266738.3686872197,
                6242121.544939052
              ],
              [
                266747.9830359146,
                6242122.558394391
              ],
              [
                266746.26389621716,
                6242138.664388733
              ],
              [
                266736.6498040086,
                6242137.639840784
              ]
            ]
          ]
        },
        "plus_code": "4FRW3F7G+RG9",
        "ground_height": 4.34,
        "building_height": 4.1,
        "roof_height": 8.44
      },
      "geometry": {
        "type": "Polygon",
        "coordinates": [
          [
            [
              266736.6498040086,
              6242137.639840784
            ],
            [
              266738.3686872197,
              6242121.544939052
            ],
            [
              266747.9830359146,
              6242122.558394391
            ],
            [
              266746.26389621716,
              6242138.664388733
            ],
            [
              266736.6498040086,
              6242137.639840784
            ]
          ]
        ]
      }
    },
    {
      "type": "Feature",
      "properties": {
        "osm_id": "815769474",
        "address": null,
        "building": "yes",
        "building:levels": "1",
        "footprint": {
          "type": "Polygon",
          "coordinates": [
            [
              [
                266741.1973781808,
                6242188.926841119
              ],
              [
                266732.3032698523,
                6242184.956712697
              ],
              [
                266733.89702853,
                6242181.46661033
              ],
              [
                266729.98343732854,
                6242179.983003071
              ],
              [
                266736.822840891,
                6242163.692239818
              ],
              [
                266740.8372705906,
                6242165.588969747
              ],
              [
                266736.6531911215,
                6242175.474654907
              ],
              [
                266745.95107902715,
                6242179.576797897
              ],
              [
                266744.6072860969,
                6242182.307256889
              ],
              [
                266747.53573552246,
                6242183.60014219
              ],
              [
                266745.7439444342,
                6242187.995449575
              ],
              [
                266742.17730075924,
                6242186.697959803
              ],
              [
                266741.1973781808,
                6242188.926841119
              ]
            ]
          ]
        },
        "plus_code": "4FRW3F7G+XGM",
        "ground_height": 3.78,
        "building_height": 4.1,
        "roof_height": 7.88
      },
      "geometry": {
        "type": "Polygon",
        "coordinates": [
          [
            [
              266741.1973781808,
              6242188.926841119
            ],
            [
              266732.3032698523,
              6242184.956712697
            ],
            [
              266733.89702853,
              6242181.46661033
            ],
            [
              266729.98343732854,
              6242179.983003071
            ],
            [
              266736.822840891,
              6242163.692239818
            ],
            [
              266740.8372705906,
              6242165.588969747
            ],
            [
              266736.6531911215,
              6242175.474654907
            ],
            [
              266745.95107902715,
              6242179.576797897
            ],
            [
              266744.6072860969,
              6242182.307256889
            ],
            [
              266747.53573552246,
              6242183.60014219
            ],
            [
              266745.7439444342,
              6242187.995449575
            ],
            [
              266742.17730075924,
              6242186.697959803
            ],
            [
              266741.1973781808,
              6242188.926841119
            ]
          ]
        ]
      }
    },
    {
      "type": "Feature",
      "properties": {
        "osm_id": "815769475",
        "address": null,
        "building": "yes",
        "building:levels": "1",
        "footprint": {
          "type": "Polygon",
          "coordinates": [
            [
              [
                266801.8460977669,
                6242098.279326867
              ],
              [
                266798.6336139516,
                6242105.525298351
              ],
              [
                266799.93305382447,
                6242106.101089081
              ],
              [
                266798.7282351607,
                6242108.823874189
              ],
              [
                266790.19907952996,
                6242105.062545601
              ],
              [
                266792.5885931578,
                6242099.68307293
              ],
              [
                266790.7491490303,
                6242098.872027281
              ],
              [
                266792.7766728605,
                6242094.293838613
              ],
              [
                266801.8460977669,
                6242098.279326867
              ]
            ]
          ]
        },
        "plus_code": "4FRW3F7G+PQ3",
        "ground_height": 6.34,
        "building_height": 4.1,
        "roof_height": 10.44
      },
      "geometry": {
        "type": "Polygon",
        "coordinates": [
          [
            [
              266801.8460977669,
              6242098.279326867
            ],
            [
              266798.6336139516,
              6242105.525298351
            ],
            [
              266799.93305382447,
              6242106.101089081
            ],
            [
              266798.7282351607,
              6242108.823874189
            ],
            [
              266790.19907952996,
              6242105.062545601
            ],
            [
              266792.5885931578,
              6242099.68307293
            ],
            [
              266790.7491490303,
              6242098.872027281
            ],
            [
              266792.7766728605,
              6242094.293838613
            ],
            [
              266801.8460977669,
              6242098.279326867
            ]
          ]
        ]
      }
    },
    {
      "type": "Feature",
      "properties": {
        "osm_id": "815769477",
        "address": null,
        "building": "yes",
        "building:levels": "1",
        "footprint": {
          "type": "Polygon",
          "coordinates": [
            [
              [
                266791.7790137678,
                6242298.436894389
              ],
              [
                266791.2400699471,
                6242318.090136332
              ],
              [
                266796.0751124026,
                6242318.220167606
              ],
              [
                266795.8841911608,
                6242325.229707641
              ],
              [
                266791.2063161004,
                6242325.103542602
              ],
              [
                266791.1206760182,
                6242328.209009137
              ],
              [
                266781.64473303955,
                6242327.953715626
              ],
              [
                266781.7320133288,
                6242324.7816984225
              ],
              [
                266777.22055446124,
                6242324.659620188
              ],
              [
                266777.4251322982,
                6242317.09549154
              ],
              [
                266776.5563427652,
                6242317.063020967
              ],
              [
                266777.00639750453,
                6242300.648346129
              ],
              [
                266782.2944525288,
                6242300.789529225
              ],
              [
                266782.36809073336,
                6242298.172100158
              ],
              [
                266791.7790137678,
                6242298.436894389
              ]
            ]
          ]
        },
        "plus_code": "4FRW3F8G+FP5",
        "ground_height": 8.06,
        "building_height": 4.1,
        "roof_height": 12.16
      },
      "geometry": {
        "type": "Polygon",
        "coordinates": [
          [
            [
              266791.7790137678,
              6242298.436894389
            ],
            [
              266791.2400699471,
              6242318.090136332
            ],
            [
              266796.0751124026,
              6242318.220167606
            ],
            [
              266795.8841911608,
              6242325.229707641
            ],
            [
              266791.2063161004,
              6242325.103542602
            ],
            [
              266791.1206760182,
              6242328.209009137
            ],
            [
              266781.64473303955,
              6242327.953715626
            ],
            [
              266781.7320133288,
              6242324.7816984225
            ],
            [
              266777.22055446124,
              6242324.659620188
            ],
            [
              266777.4251322982,
              6242317.09549154
            ],
            [
              266776.5563427652,
              6242317.063020967
            ],
            [
              266777.00639750453,
              6242300.648346129
            ],
            [
              266782.2944525288,
              6242300.789529225
            ],
            [
              266782.36809073336,
              6242298.172100158
            ],
            [
              266791.7790137678,
              6242298.436894389
            ]
          ]
        ]
      }
    },
    {
      "type": "Feature",
      "properties": {
        "osm_id": "815769478",
        "address": null,
        "building": "yes",
        "building:levels": "1",
        "footprint": {
          "type": "Polygon",
          "coordinates": [
            [
              [
                266794.1675269117,
                6242236.688233313
              ],
              [
                266784.45945257624,
                6242236.47161915
              ],
              [
                266784.3410020005,
                6242241.662792873
              ],
              [
                266773.171896326,
                6242241.421324983
              ],
              [
                266773.39438014035,
                6242231.249493229
              ],
              [
                266778.1004908245,
                6242231.3541683685
              ],
              [
                266778.20339209575,
                6242226.79522513
              ],
              [
                266787.2735342125,
                6242226.996153671
              ],
              [
                266787.1629974579,
                6242231.865666208
              ],
              [
                266794.2728758421,
                6242232.029464461
              ],
              [
                266794.1675269117,
                6242236.688233313
              ]
            ]
          ]
        },
        "plus_code": "4FRW3F8G+5PP",
        "ground_height": 9.19,
        "building_height": 4.1,
        "roof_height": 13.29
      },
      "geometry": {
        "type": "Polygon",
        "coordinates": [
          [
            [
              266794.1675269117,
              6242236.688233313
            ],
            [
              266784.45945257624,
              6242236.47161915
            ],
            [
              266784.3410020005,
              6242241.662792873
            ],
            [
              266773.171896326,
              6242241.421324983
            ],
            [
              266773.39438014035,
              6242231.249493229
            ],
            [
              266778.1004908245,
              6242231.3541683685
            ],
            [
              266778.20339209575,
              6242226.79522513
            ],
            [
              266787.2735342125,
              6242226.996153671
            ],
            [
              266787.1629974579,
              6242231.865666208
            ],
            [
              266794.2728758421,
              6242232.029464461
            ],
            [
              266794.1675269117,
              6242236.688233313
            ]
          ]
        ]
      }
    },
    {
      "type": "Feature",
      "properties": {
        "osm_id": "815769479",
        "address": null,
        "building": "yes",
        "building:levels": "1",
        "footprint": {
          "type": "Polygon",
          "coordinates": [
            [
              [
                266863.86324547464,
                6242259.644873904
              ],
              [
                266864.43499486137,
                6242239.40422584
              ],
              [
                266874.20642065123,
                6242239.677808136
              ],
              [
                266873.6251741417,
                6242259.929320069
              ],
              [
                266863.86324547464,
                6242259.644873904
              ]
            ]
          ]
        },
        "plus_code": "4FRW3F8H+64J",
        "ground_height": 8.3,
        "building_height": 4.1,
        "roof_height": 12.4
      },
      "geometry": {
        "type": "Polygon",
        "coordinates": [
          [
            [
              266863.86324547464,
              6242259.644873904
            ],
            [
              266864.43499486137,
              6242239.40422584
            ],
            [
              266874.20642065123,
              6242239.677808136
            ],
            [
              266873.6251741417,
              6242259.929320069
            ],
            [
              266863.86324547464,
              6242259.644873904
            ]
          ]
        ]
      }
    },
    {
      "type": "Feature",
      "properties": {
        "osm_id": "815769480",
        "address": null,
        "building": "shed",
        "building:levels": "1",
        "footprint": {
          "type": "Polygon",
          "coordinates": [
            [
              [
                266823.05588589946,
                6242296.575867213
              ],
              [
                266809.9745733011,
                6242296.220825651
              ],
              [
                266810.6166078928,
                6242272.374897353
              ],
              [
                266815.2759658202,
                6242272.50059943
              ],
              [
                266814.78532431263,
                6242290.567945875
              ],
              [
                266823.21650741174,
                6242290.797513222
              ],
              [
                266823.05588589946,
                6242296.575867213
              ]
            ]
          ]
        },
        "plus_code": "4FRW3F8G+9V3",
        "ground_height": 9.67,
        "building_height": 4.1,
        "roof_height": 13.77
      },
      "geometry": {
        "type": "Polygon",
        "coordinates": [
          [
            [
              266823.05588589946,
              6242296.575867213
            ],
            [
              266809.9745733011,
              6242296.220825651
            ],
            [
              266810.6166078928,
              6242272.374897353
            ],
            [
              266815.2759658202,
              6242272.50059943
            ],
            [
              266814.78532431263,
              6242290.567945875
            ],
            [
              266823.21650741174,
              6242290.797513222
            ],
            [
              266823.05588589946,
              6242296.575867213
            ]
          ]
        ]
      }
    },
    {
      "type": "Feature",
      "properties": {
        "osm_id": "815769481",
        "address": null,
        "building": "yes",
        "building:levels": "1",
        "footprint": {
          "type": "Polygon",
          "coordinates": [
            [
              [
                266909.6264540467,
                6242114.447943736
              ],
              [
                266914.0462003941,
                6242102.869926499
              ],
              [
                266920.40668697597,
                6242105.290398306
              ],
              [
                266921.58294259466,
                6242102.22284579
              ],
              [
                266929.14445237257,
                6242105.083483654
              ],
              [
                266925.6545797464,
                6242114.209410148
              ],
              [
                266920.9986824708,
                6242112.441268023
              ],
              [
                266918.94206679286,
                6242117.828952195
              ],
              [
                266917.44484511367,
                6242118.524639421
              ],
              [
                266915.500146597,
                6242117.855311286
              ],
              [
                266914.89659358596,
                6242116.442064796
              ],
              [
                266909.6264540467,
                6242114.447943736
              ]
            ]
          ]
        },
        "plus_code": "4FRW3F7H+P86",
        "ground_height": 8.01,
        "building_height": 4.1,
        "roof_height": 12.11
      },
      "geometry": {
        "type": "Polygon",
        "coordinates": [
          [
            [
              266909.6264540467,
              6242114.447943736
            ],
            [
              266914.0462003941,
              6242102.869926499
            ],
            [
              266920.40668697597,
              6242105.290398306
            ],
            [
              266921.58294259466,
              6242102.22284579
            ],
            [
              266929.14445237257,
              6242105.083483654
            ],
            [
              266925.6545797464,
              6242114.209410148
            ],
            [
              266920.9986824708,
              6242112.441268023
            ],
            [
              266918.94206679286,
              6242117.828952195
            ],
            [
              266917.44484511367,
              6242118.524639421
            ],
            [
              266915.500146597,
              6242117.855311286
            ],
            [
              266914.89659358596,
              6242116.442064796
            ],
            [
              266909.6264540467,
              6242114.447943736
            ]
          ]
        ]
      }
    },
    {
      "type": "Feature",
      "properties": {
        "osm_id": "815769483",
        "address": null,
        "building": "yes",
        "building:levels": "1",
        "footprint": {
          "type": "Polygon",
          "coordinates": [
            [
              [
                266887.61157730967,
                6242132.429972954
              ],
              [
                266889.600986718,
                6242127.895223667
              ],
              [
                266891.37654578197,
                6242128.671382738
              ],
              [
                266892.22914896905,
                6242126.72791851
              ],
              [
                266905.80225806433,
                6242132.655290149
              ],
              [
                266903.6173164019,
                6242137.618074788
              ],
              [
                266894.9681853233,
                6242133.84279726
              ],
              [
                266894.30187697813,
                6242135.35800221
              ],
              [
                266887.61157730967,
                6242132.429972954
              ]
            ]
          ]
        },
        "plus_code": "4FRW3F7H+R62",
        "ground_height": 9.68,
        "building_height": 4.1,
        "roof_height": 13.78
      },
      "geometry": {
        "type": "Polygon",
        "coordinates": [
          [
            [
              266887.61157730967,
              6242132.429972954
            ],
            [
              266889.600986718,
              6242127.895223667
            ],
            [
              266891.37654578197,
              6242128.671382738
            ],
            [
              266892.22914896905,
              6242126.72791851
            ],
            [
              266905.80225806433,
              6242132.655290149
            ],
            [
              266903.6173164019,
              6242137.618074788
            ],
            [
              266894.9681853233,
              6242133.84279726
            ],
            [
              266894.30187697813,
              6242135.35800221
            ],
            [
              266887.61157730967,
              6242132.429972954
            ]
          ]
        ]
      }
    },
    {
      "type": "Feature",
      "properties": {
        "osm_id": "815769484",
        "address": null,
        "building": "yes",
        "building:levels": "1",
        "footprint": {
          "type": "Polygon",
          "coordinates": [
            [
              [
                266872.1149007388,
                6242166.354275905
              ],
              [
                266879.4674851254,
                6242152.883962449
              ],
              [
                266896.703652651,
                6242162.208763469
              ],
              [
                266893.93270825245,
                6242167.3014177065
              ],
              [
                266888.79312237224,
                6242164.5114075
              ],
              [
                266884.2204708549,
                6242172.900395788
              ],
              [
                266872.1149007388,
                6242166.354275905
              ]
            ]
          ]
        },
        "plus_code": "4FRW3F7H+W57",
        "ground_height": 10.14,
        "building_height": 4.1,
        "roof_height": 14.24
      },
      "geometry": {
        "type": "Polygon",
        "coordinates": [
          [
            [
              266872.1149007388,
              6242166.354275905
            ],
            [
              266879.4674851254,
              6242152.883962449
            ],
            [
              266896.703652651,
              6242162.208763469
            ],
            [
              266893.93270825245,
              6242167.3014177065
            ],
            [
              266888.79312237224,
              6242164.5114075
            ],
            [
              266884.2204708549,
              6242172.900395788
            ],
            [
              266872.1149007388,
              6242166.354275905
            ]
          ]
        ]
      }
    },
    {
      "type": "Feature",
      "properties": {
        "osm_id": "815769485",
        "address": null,
        "building": "optical_telescope",
        "building:levels": "2",
        "footprint": {
          "type": "Polygon",
          "coordinates": [
            [
              [
                266831.56311652786,
                6242144.014609348
              ],
              [
                266833.0331292441,
                6242143.673416849
              ],
              [
                266835.55839517416,
                6242144.057382192
              ],
              [
                266837.60309489944,
                6242145.55047331
              ],
              [
                266838.41357935546,
                6242146.824534672
              ],
              [
                266838.86998935486,
                6242148.578220455
              ],
              [
                266838.70533579605,
                6242150.383222166
              ],
              [
                266837.94301908027,
                6242152.040342792
              ],
              [
                266836.67142877006,
                6242153.340885129
              ],
              [
                266835.04203412926,
                6242154.144294214
              ],
              [
                266833.2326762116,
                6242154.366156106
              ],
              [
                266831.4570857527,
                6242153.96733359
              ],
              [
                266829.9083206834,
                6242152.996968942
              ],
              [
                266828.7775291085,
                6242151.581846919
              ],
              [
                266828.190869796,
                6242149.85825236
              ],
              [
                266828.2076025374,
                6242148.049612433
              ],
              [
                266828.83233438054,
                6242146.344714555
              ],
              [
                266829.99543821113,
                6242144.941618664
              ],
              [
                266831.56311652786,
                6242144.014609348
              ]
            ]
          ]
        },
        "plus_code": "4FRW3F7G+VWH",
        "ground_height": 9.53,
        "building_height": 6.9,
        "roof_height": 16.43
      },
      "geometry": {
        "type": "Polygon",
        "coordinates": [
          [
            [
              266831.56311652786,
              6242144.014609348
            ],
            [
              266833.0331292441,
              6242143.673416849
            ],
            [
              266835.55839517416,
              6242144.057382192
            ],
            [
              266837.60309489944,
              6242145.55047331
            ],
            [
              266838.41357935546,
              6242146.824534672
            ],
            [
              266838.86998935486,
              6242148.578220455
            ],
            [
              266838.70533579605,
              6242150.383222166
            ],
            [
              266837.94301908027,
              6242152.040342792
            ],
            [
              266836.67142877006,
              6242153.340885129
            ],
            [
              266835.04203412926,
              6242154.144294214
            ],
            [
              266833.2326762116,
              6242154.366156106
            ],
            [
              266831.4570857527,
              6242153.96733359
            ],
            [
              266829.9083206834,
              6242152.996968942
            ],
            [
              266828.7775291085,
              6242151.581846919
            ],
            [
              266828.190869796,
              6242149.85825236
            ],
            [
              266828.2076025374,
              6242148.049612433
            ],
            [
              266828.83233438054,
              6242146.344714555
            ],
            [
              266829.99543821113,
              6242144.941618664
            ],
            [
              266831.56311652786,
              6242144.014609348
            ]
          ]
        ]
      }
    },
    {
      "type": "Feature",
      "properties": {
        "osm_id": "815769486",
        "address": "McClean Building",
        "building": "public",
        "building:levels": "1",
        "footprint": {
          "type": "Polygon",
          "coordinates": [
            [
              [
                266838.41357935546,
                6242146.824534672
              ],
              [
                266837.60309489944,
                6242145.55047331
              ],
              [
                266835.55839517416,
                6242144.057382192
              ],
              [
                266833.0331292441,
                6242143.673416849
              ],
              [
                266831.56311652786,
                6242144.014609348
              ],
              [
                266831.4009471856,
                6242138.572367853
              ],
              [
                266828.3399782877,
                6242138.53037639
              ],
              [
                266828.3840838446,
                6242134.480517624
              ],
              [
                266831.71343398676,
                6242134.518011704
              ],
              [
                266831.7514757728,
                6242131.46686665
              ],
              [
                266842.58110495575,
                6242131.588941854
              ],
              [
                266842.48632889125,
                6242140.33220862
              ],
              [
                266839.87837292824,
                6242140.301362507
              ],
              [
                266839.8183603083,
                6242146.126585569
              ],
              [
                266838.41357935546,
                6242146.824534672
              ]
            ]
          ]
        },
        "plus_code": "4FRW3F7G+RXJ",
        "ground_height": 8.78,
        "building_height": 4.1,
        "roof_height": 12.88
      },
      "geometry": {
        "type": "Polygon",
        "coordinates": [
          [
            [
              266838.41357935546,
              6242146.824534672
            ],
            [
              266837.60309489944,
              6242145.55047331
            ],
            [
              266835.55839517416,
              6242144.057382192
            ],
            [
              266833.0331292441,
              6242143.673416849
            ],
            [
              266831.56311652786,
              6242144.014609348
            ],
            [
              266831.4009471856,
              6242138.572367853
            ],
            [
              266828.3399782877,
              6242138.53037639
            ],
            [
              266828.3840838446,
              6242134.480517624
            ],
            [
              266831.71343398676,
              6242134.518011704
            ],
            [
              266831.7514757728,
              6242131.46686665
            ],
            [
              266842.58110495575,
              6242131.588941854
            ],
            [
              266842.48632889125,
              6242140.33220862
            ],
            [
              266839.87837292824,
              6242140.301362507
            ],
            [
              266839.8183603083,
              6242146.126585569
            ],
            [
              266838.41357935546,
              6242146.824534672
            ]
          ]
        ]
      }
    },
    {
      "type": "Feature",
      "properties": {
        "osm_id": "1039618351",
        "address": null,
        "building": "optical_telescope",
        "building:levels": "2",
        "footprint": {
          "type": "Polygon",
          "coordinates": [
            [
              [
                266885.7768318282,
                6242123.150929458
              ],
              [
                266878.611840826,
                6242122.97473957
              ],
              [
                266878.78694964503,
                6242115.853827089
              ],
              [
                266885.95193525555,
                6242116.0300171375
              ],
              [
                266885.7768318282,
                6242123.150929458
              ]
            ]
          ]
        },
        "plus_code": "4FRW3F7H+Q49",
        "ground_height": 10.18,
        "building_height": 6.9,
        "roof_height": 17.08
      },
      "geometry": {
        "type": "Polygon",
        "coordinates": [
          [
            [
              266885.7768318282,
              6242123.150929458
            ],
            [
              266878.611840826,
              6242122.97473957
            ],
            [
              266878.78694964503,
              6242115.853827089
            ],
            [
              266885.95193525555,
              6242116.0300171375
            ],
            [
              266885.7768318282,
              6242123.150929458
            ]
          ]
        ]
      }
    },
    {
      "type": "Feature",
      "properties": {
        "osm_id": "1039618750",
        "address": null,
        "building": "yes",
        "building:levels": "1",
        "footprint": {
          "type": "Polygon",
          "coordinates": [
            [
              [
                266854.82665401197,
                6242162.532990737
              ],
              [
                266854.7272444255,
                6242178.612232636
              ],
              [
                266851.1662036594,
                6242178.591246781
              ],
              [
                266851.2224097868,
                6242169.158927209
              ],
              [
                266848.8453031868,
                6242169.144859992
              ],
              [
                266848.8795419409,
                6242162.4866181575
              ],
              [
                266854.82665401197,
                6242162.532990737
              ]
            ]
          ]
        },
        "plus_code": "4FRW3F7H+X28",
        "ground_height": 10.4,
        "building_height": 4.1,
        "roof_height": 14.5
      },
      "geometry": {
        "type": "Polygon",
        "coordinates": [
          [
            [
              266854.82665401197,
              6242162.532990737
            ],
            [
              266854.7272444255,
              6242178.612232636
            ],
            [
              266851.1662036594,
              6242178.591246781
            ],
            [
              266851.2224097868,
              6242169.158927209
            ],
            [
              266848.8453031868,
              6242169.144859992
            ],
            [
              266848.8795419409,
              6242162.4866181575
            ],
            [
              266854.82665401197,
              6242162.532990737
            ]
          ]
        ]
      }
    },
    {
      "type": "Feature",
      "properties": {
        "osm_id": "1039618751",
        "address": null,
        "building": "yes",
        "building:levels": "1",
        "footprint": {
          "type": "Polygon",
          "coordinates": [
            [
              [
                266834.4812705868,
                6242172.054538513
              ],
              [
                266829.7248728226,
                6242172.115129289
              ],
              [
                266829.6186583767,
                6242164.0217287075
              ],
              [
                266834.3750520996,
                6242163.961138202
              ],
              [
                266834.4812705868,
                6242172.054538513
              ]
            ]
          ]
        },
        "plus_code": "4FRW3F7G+WWW",
        "ground_height": 9.53,
        "building_height": 4.1,
        "roof_height": 13.63
      },
      "geometry": {
        "type": "Polygon",
        "coordinates": [
          [
            [
              266834.4812705868,
              6242172.054538513
            ],
            [
              266829.7248728226,
              6242172.115129289
            ],
            [
              266829.6186583767,
              6242164.0217287075
            ],
            [
              266834.3750520996,
              6242163.961138202
            ],
            [
              266834.4812705868,
              6242172.054538513
            ]
          ]
        ]
      }
    },
    {
      "type": "Feature",
      "properties": {
        "osm_id": "1039621606",
        "address": null,
        "building": "hut",
        "building:levels": "1",
        "footprint": {
          "type": "Polygon",
          "coordinates": [
            [
              [
                266804.06524261355,
                6242450.344255293
              ],
              [
                266803.66877704475,
                6242446.905075993
              ],
              [
                266807.5940395675,
                6242446.790749812
              ],
              [
                266811.517571341,
                6242444.489980582
              ],
              [
                266813.5891659883,
                6242447.149072274
              ],
              [
                266809.3773274553,
                6242450.264038289
              ],
              [
                266804.06524261355,
                6242450.344255293
              ]
            ]
          ]
        },
        "plus_code": "4FRW3F8G+XV2",
        "ground_height": 2.86,
        "building_height": 4.1,
        "roof_height": 6.96
      },
      "geometry": {
        "type": "Polygon",
        "coordinates": [
          [
            [
              266804.06524261355,
              6242450.344255293
            ],
            [
              266803.66877704475,
              6242446.905075993
            ],
            [
              266807.5940395675,
              6242446.790749812
            ],
            [
              266811.517571341,
              6242444.489980582
            ],
            [
              266813.5891659883,
              6242447.149072274
            ],
            [
              266809.3773274553,
              6242450.264038289
            ],
            [
              266804.06524261355,
              6242450.344255293
            ]
          ]
        ]
      }
    },
    {
      "type": "Feature",
      "properties": {
        "osm_id": "1171929729",
        "address": null,
        "building": "guardhouse",
        "building:levels": "1",
        "footprint": {
          "type": "Polygon",
          "coordinates": [
            [
              [
                266811.7978509774,
                6242089.711933968
              ],
              [
                266814.1575788654,
                6242085.918806663
              ],
              [
                266819.8425011663,
                6242089.476972909
              ],
              [
                266817.1850211471,
                6242093.340466885
              ],
              [
                266811.7978509774,
                6242089.711933968
              ]
            ]
          ]
        },
        "plus_code": "4FRW3F7G+MV2",
        "ground_height": 7.05,
        "building_height": 4.1,
        "roof_height": 11.15
      },
      "geometry": {
        "type": "Polygon",
        "coordinates": [
          [
            [
              266811.7978509774,
              6242089.711933968
            ],
            [
              266814.1575788654,
              6242085.918806663
            ],
            [
              266819.8425011663,
              6242089.476972909
            ],
            [
              266817.1850211471,
              6242093.340466885
            ],
            [
              266811.7978509774,
              6242089.711933968
            ]
          ]
        ]
      }
    }
  ]
}